NORAD_CAT_ID,OBJECT_NAME,OBJECT_TYPE,EPOCH,MEAN_MOTION,ECCENTRICITY,INCLINATION,RA_OF_ASC_NODE,ARG_OF_PERICENTER,MEAN_ANOMALY,BSTAR,MEAN_MOTION_DOT,MEAN_MOTION_DDOT,TLE_LINE0,TLE_LINE1,TLE_LINE2,SEMIMAJOR_AXIS,PERIOD,APOGEE,PERIGEE,DECAYED
49428.0,STARLINK-3121,PAYLOAD,2023-01-27 20:22:58,15.0882963,0.0001992,53.214,292.6066,48.6957,311.4206,0.00029192,4.36e-05,0.0,0 STARLINK-3121,1 49428U 21104W   23027.84928579  .00004360  00000-0  29192-3 0  9990,2 49428  53.2140 292.6066 0001992  48.6957 311.4206 15.08829630 67018,6917.911999999999,95.438,541.155,538.399,0.0
49428.0,STARLINK-3121,PAYLOAD,2023-01-28 02:44:29,15.08856312,0.0001054,53.2135,291.4145,85.9238,274.1874,0.00050314,7.732e-05,0.0,0 STARLINK-3121,1 49428U 21104W   23028.11422854  .00007732  00000-0  50314-3 0  9992,2 49428  53.2135 291.4145 0001054  85.9238 274.1874 15.08856312 68128,6917.831,95.437,540.425,538.966,0.0
49428.0,STARLINK-3121,PAYLOAD,2023-01-28 12:16:48,15.08847355,9.25e-05,53.2133,289.6282,103.6466,256.4629,0.00053489,8.237e-05,0.0,0 STARLINK-3121,1 49428U 21104W   23028.51167643  .00008237  00000-0  53489-3 0  9995,2 49428  53.2133 289.6282 0000925 103.6466 256.4629 15.08847355 68188,6917.858,95.437,540.363,539.083,0.0
49428.0,STARLINK-3121,PAYLOAD,2023-01-28 21:49:07,15.08839114,0.0001275,53.2121,287.8439,114.9741,245.1384,-0.00029512,-4.982e-05,0.0,0 STARLINK-3121,1 49428U 21104W   23028.90911856 -.00004982  00000-0 -29512-3 0  9996,2 49428  53.2121 287.8439 0001275 114.9741 245.1384 15.08839114 67174,6917.883,95.438,540.63,538.866,0.0
49428.0,STARLINK-3121,PAYLOAD,2023-01-28 23:24:30,15.0884165,0.0001235,53.2124,287.5494,77.6017,282.5113,-0.00061682,-0.00010092,0.0,0 STARLINK-3121,1 49428U 21104W   23028.97535749 -.00010092  00000-0 -61682-3 0  9999,2 49428  53.2124 287.5494 0001235  77.6017 282.5113 15.08841650 68255,6917.875,95.437,540.595,538.886,0.0
49428.0,STARLINK-3121,PAYLOAD,2023-01-29 16:53:45,15.08853923,0.0001368,53.2127,284.2785,77.0029,283.1116,0.0015849,0.00025035,0.0,0 STARLINK-3121,1 49428U 21104W   23029.70399990  .00025035  00000-0  15849-2 0  9991,2 49428  53.2127 284.2785 0001368  77.0029 283.1116 15.08853923 68367,6917.838,95.437,540.649,538.756,0.0
49428.0,STARLINK-3121,PAYLOAD,2023-01-29 20:04:31,15.08858918,0.0001382,53.2127,283.6837,76.5045,283.6101,0.0014919,0.00023548,0.0,0 STARLINK-3121,1 49428U 21104W   23029.83647841  .00023548  00000-0  14919-2 0  9990,2 49428  53.2127 283.6837 0001382  76.5045 283.6101 15.08858918 67318,6917.823,95.436,540.644,538.732,0.0
49428.0,STARLINK-3121,PAYLOAD,2023-01-30 02:26:03,15.08871007,0.0001418,53.2128,282.4945,72.0219,288.0928,0.0014483,0.00022856,0.0,0 STARLINK-3121,1 49428U 21104W   23030.10143384  .00022856  00000-0  14483-2 0  9992,2 49428  53.2128 282.4945 0001418  72.0219 288.0928 15.08871007 67354,6917.786,95.436,540.632,538.67,0.0
49428.0,STARLINK-3121,PAYLOAD,2023-01-30 21:30:40,15.08872689,0.0001306,53.213,278.924,66.7703,293.3427,0.0011838,0.00018619,0.0,0 STARLINK-3121,1 49428U 21104W   23030.89630520  .00018619  00000-0  11838-2 0  9994,2 49428  53.2130 278.9240 0001306  66.7703 293.3427 15.08872689 67472,6917.78,95.435,540.549,538.742,0.0
49428.0,STARLINK-3121,PAYLOAD,2023-01-30 23:06:03,15.08873152,0.0001558,53.2128,278.6259,79.3527,280.764,0.001014,0.00015901,0.0,0 STARLINK-3121,1 49428U 21104W   23030.96254340  .00015901  00000-0  10140-2 0  9990,2 49428  53.2128 278.6259 0001558  79.3527 280.7640 15.08873152 68552,6917.779,95.435,540.722,538.566,0.0
49428.0,STARLINK-3121,PAYLOAD,2023-01-31 16:35:17,15.08857979,0.0001372,53.2129,275.3562,77.8645,282.2501,0.00087182,0.00013621,0.0,0 STARLINK-3121,1 49428U 21104W   23031.69117956  .00013621  00000-0  87182-3 0  9990,2 49428  53.2129 275.3562 0001372  77.8645 282.2501 15.08857979 68666,6917.825,95.436,540.64,538.741,0.0
49428.0,STARLINK-3121,PAYLOAD,2023-01-31 19:46:04,15.08853698,0.0001274,53.2129,274.7617,74.0299,286.0833,0.00045793,7.01e-05,0.0,0 STARLINK-3121,1 49428U 21104W   23031.82365881  .00007010  00000-0  45793-3 0  9994,2 49428  53.2129 274.7617 0001274  74.0299 286.0833 15.08853698 67613,6917.839,95.437,540.585,538.822,0.0
49428.0,STARLINK-3121,PAYLOAD,2023-02-01 02:07:36,15.08853802,0.0001332,53.213,273.5712,83.8131,276.3013,0.00016401,2.324e-05,0.0,0 STARLINK-3121,1 49428U 21104W   23032.08861599  .00002324  00000-0  16401-3 0  9997,2 49428  53.2130 273.5712 0001332  83.8131 276.3013 15.08853802 68728,6917.838,95.437,540.625,538.782,0.0
49428.0,STARLINK-3121,PAYLOAD,2023-02-01 18:01:28,15.08839285,0.0001328,53.2139,270.596,81.8207,278.2936,-0.00014327,-2.567e-05,0.0,0 STARLINK-3121,1 49428U 21104W   23032.75101857 -.00002567  00000-0 -14327-3 0  9991,2 49428  53.2139 270.5960 0001328  81.8207 278.2936 15.08839285 68821,6917.883,95.438,540.666,538.829,0.0
49428.0,STARLINK-3121,PAYLOAD,2023-02-01 22:47:37,15.08850412,0.0001444,53.2124,269.7039,82.3178,277.7978,5.6283e-05,6.08e-06,0.0,0 STARLINK-3121,1 49428U 21104W   23032.94973485  .00000608  00000-0  56283-4 0  9996,2 49428  53.2124 269.7039 0001444  82.3178 277.7978 15.08850412 68852,6917.849,95.437,540.713,538.715,0.0
49428.0,STARLINK-3121,PAYLOAD,2023-02-02 13:06:05,15.08838494,0.000115,53.2125,267.0298,94.4866,265.6257,-3.3296e-06,-3.41e-06,0.0,0 STARLINK-3121,1 49428U 21104W   23033.54589896 -.00000341  00000-0 -33296-5 0  9998,2 49428  53.2125 267.0298 0001150  94.4866 265.6257 15.08838494 67876,6917.885,95.438,540.546,538.954,0.0
49428.0,STARLINK-3121,PAYLOAD,2023-02-02 22:38:24,15.0884189,0.0001155,53.2124,265.2456,94.9262,265.1862,5.0198e-05,5.11e-06,0.0,0 STARLINK-3121,1 49428U 21104W   23033.94333814  .00000511  00000-0  50198-4 0  9995,2 49428  53.2124 265.2456 0001155  94.9262 265.1862 15.08841890 69009,6917.875,95.437,540.539,538.941,0.0
49428.0,STARLINK-3121,PAYLOAD,2023-02-03 14:32:16,15.08831419,0.0001121,53.2125,262.2717,102.3716,257.7402,2.4688e-05,1.05e-06,0.0,0 STARLINK-3121,1 49428U 21104W   23034.60574457  .00000105  00000-0  24688-4 0  9993,2 49428  53.2125 262.2717 0001121 102.3716 257.7402 15.08831419 69102,6917.907,95.438,540.547,538.996,0.0
49428.0,STARLINK-3121,PAYLOAD,2023-02-03 17:43:02,15.08832182,0.0001208,53.212,261.6764,98.8055,261.3074,-2.5828e-05,-6.99e-06,0.0,0 STARLINK-3121,1 49428U 21104W   23034.73822521 -.00000699  00000-0 -25828-4 0  9992,2 49428  53.2120 261.6764 0001208  98.8055 261.3074 15.08832182 68050,6917.904,95.438,540.605,538.934,0.0
49428.0,STARLINK-3121,PAYLOAD,2023-02-04 12:47:39,15.08843995,0.0001154,53.2118,258.1078,94.8599,265.2524,0.0002125,3.096e-05,0.0,0 STARLINK-3121,1 49428U 21104W   23035.53310164  .00003096  00000-0  21250-3 0  9992,2 49428  53.2118 258.1078 0001154  94.8599 265.2524 15.08843995 69244,6917.868,95.437,540.531,538.935,0.0
49428.0,STARLINK-3121,PAYLOAD,2023-02-04 20:44:35,15.08847702,0.0001148,53.2114,256.6211,91.1594,268.9529,0.00028741,4.29e-05,0.0,0 STARLINK-3121,1 49428U 21104W   23035.86430035  .00004290  00000-0  28741-3 0  9997,2 49428  53.2114 256.6211 0001148  91.1594 268.9529 15.08847702 68222,6917.857,95.437,540.516,538.928,0.0
49428.0,STARLINK-3121,PAYLOAD,2023-02-04 23:55:21,15.08852453,0.0001164,53.2113,256.0264,87.9716,272.141,0.00036016,5.451e-05,0.0,0 STARLINK-3121,1 49428U 21104W   23035.99677829  .00005451  00000-0  36016-3 0  9999,2 49428  53.2113 256.0264 0001164  87.9716 272.1410 15.08852453 68247,6917.842,95.437,540.513,538.902,0.0
49428.0,STARLINK-3121,PAYLOAD,2023-02-05 20:35:23,15.08838299,0.0001226,53.2115,252.1605,90.0842,270.0291,0.00010184,1.333e-05,0.0,0 STARLINK-3121,1 49428U 21104W   23036.85790586  .00001333  00000-0  10184-3 0  9994,2 49428  53.2115 252.1605 0001226  90.0842 270.0291 15.08838299 69448,6917.886,95.438,540.599,538.902,0.0
49428.0,STARLINK-3121,PAYLOAD,2023-02-06 14:04:37,15.08840283,0.0001368,53.2117,248.8885,99.342,260.7727,0.00012038,1.628e-05,0.0,0 STARLINK-3121,1 49428U 21104W   23037.58654627  .00001628  00000-0  12038-3 0  9997,2 49428  53.2117 248.8885 0001368  99.3420 260.7727 15.08840283 68482,6917.88,95.438,540.691,538.798,0.0
49428.0,STARLINK-3121,PAYLOAD,2023-02-06 20:26:09,15.08846279,0.0001285,53.212,247.6993,91.092,269.022,0.00014817,2.071e-05,0.0,0 STARLINK-3121,1 49428U 21104W   23037.85150404  .00002071  00000-0  14817-3 0  9991,2 49428  53.2120 247.6993 0001285  91.0920 269.0220 15.08846279 68521,6917.861,95.437,540.615,538.837,0.0
49428.0,STARLINK-3121,PAYLOAD,2023-02-06 23:36:56,15.08846526,0.0001281,53.2114,247.1041,84.0992,276.0146,0.0002454,3.62e-05,0.0,0 STARLINK-3121,1 49428U 21104W   23037.98398442  .00003620  00000-0  24540-3 0  9996,2 49428  53.2114 247.1041 0001281  84.0992 276.0146 15.08846526 69611,6917.86,95.437,540.612,538.839,0.0
49428.0,STARLINK-3121,PAYLOAD,2023-02-07 13:55:24,15.08842962,0.0001385,53.2117,244.428,87.0977,273.0174,0.00023946,3.525e-05,0.0,0 STARLINK-3121,1 49428U 21104W   23038.58014675  .00003525  00000-0  23946-3 0  9999,2 49428  53.2117 244.4280 0001385  87.0977 273.0174 15.08842962 69708,6917.871,95.437,540.694,538.778,0.0
49428.0,STARLINK-3121,PAYLOAD,2023-02-07 21:52:20,15.08845234,0.0001379,53.2119,242.9411,86.2669,273.848,0.00023205,3.408e-05,0.0,0 STARLINK-3121,1 49428U 21104W   23038.91134532  .00003408  00000-0  23205-3 0  9999,2 49428  53.2119 242.9411 0001379  86.2669 273.8480 15.08845234 68680,6917.864,95.437,540.683,538.775,0.0
49428.0,STARLINK-3121,PAYLOAD,2023-02-08 12:10:48,15.08843416,0.0001391,53.2126,240.2653,88.6096,271.5055,9.3878e-05,1.207e-05,0.0,0 STARLINK-3121,1 49428U 21104W   23039.50750528  .00001207  00000-0  93878-4 0  9993,2 49428  53.2126 240.2653 0001391  88.6096 271.5055 15.08843416 68774,6917.87,95.437,540.697,538.773,0.0
49428.0,STARLINK-3121,PAYLOAD,2023-02-08 18:32:20,15.08844892,0.0001336,53.2139,239.0748,103.2976,256.8165,7.667e-05,9.33e-06,0.0,0 STARLINK-3121,1 49428U 21104W   23039.77246352  .00000933  00000-0  76670-4 0  9993,2 49428  53.2139 239.0748 0001336 103.2976 256.8165 15.08844892 69889,6917.865,95.437,540.655,538.806,0.0
